ONEWEB-0298             
1 49087U 21075N   23249.15292252  .00000190  00000+0  45655-3 0  9998
2 49087  87.9219 207.5428 0001758  76.6959 283.4368 13.17650534 99958
ONEWEB-0299             
1 49088U 21075P   23249.30692181  .00000076  00000+0  16222-3 0  9992
2 49088  87.9156 207.5388 0001713  72.2718 287.8600 13.17649842 99957
ONEWEB-0300             
1 49089U 21075Q   23249.08206760  .00000483  00000+0  13083-2 0  9995
2 49089  87.9050 192.4542 0001787  83.5065 276.6267 13.12438494102051
ONEWEB-0301             
1 49090U 21075R   23249.21969210  .00000613  00000+0  16689-2 0  9998
2 49090  87.9053 192.4282 0002025  88.5310 271.6051 13.12445679101431
ONEWEB-0302             
1 49091U 21075S   23249.13183693  .00000333  00000+0  88993-3 0  9990
2 49091  87.9054 192.4429 0002008  70.5528 289.5817 13.12445101101404
ONEWEB-0304             
1 49092U 21075T   23249.13184281 -.00000009  00000+0 -56318-4 0  9994
2 49092  87.9207 207.5526 0001826  76.7999 283.3336 13.17649716 99900
ONEWEB-0305             
1 49093U 21075U   23249.34910362  .00000128  00000+0  29579-3 0  9993
2 49093  87.9132 207.5313 0001689  66.2623 293.8685 13.17648755 99968
ONEWEB-0308             
1 49094U 21075V   23249.27902896  .00000185  00000+0  47945-3 0  9999
2 49094  87.9054 192.4161 0001949  82.0253 278.1097 13.12446082101432
